ONEWEB-0395             
1 50475U 21132G   26197.00722018  .00000106  00000+0  26405-3 0  9991
2 50475  87.8884  15.3274 0002013  84.7821 275.3537 13.11419498219492
ONEWEB-0396             
1 50476U 21132H   26196.92444257 -.00000008  00000+0 -52661-4 0  9995
2 50476  87.9198 329.7409 0001745  95.7869 264.3462 13.18686884225426
ONEWEB-0397             
1 50477U 21132J   26197.31899547  .00000055  00000+0  10761-3 0  9990
2 50477  87.9197 329.6625 0001636  98.3831 261.7487 13.18686833225457
ONEWEB-0398             
1 50478U 21132K   26196.97500574 -.00000299  00000+0 -88082-3 0  9994
2 50478  87.8890  15.3266 0002156  88.9751 271.1624 13.11415552219385
ONEWEB-0399             
1 50479U 21132L   26197.19034283  .00000296  00000+0  79938-3 0  9994
2 50479  87.8892  15.2950 0001512  77.5671 282.5626 13.11415197219403
ONEWEB-0400             
1 50480U 21132M   26196.91769058  .00000001  00000+0 -31339-4 0  9999
2 50480  87.9199 329.7321 0002051  97.0509 263.0857 13.18684922225393
ONEWEB-0401             
1 50481U 21132N   26196.88734792 -.00000049  00000+0 -15601-3 0  9999
2 50481  87.9201 329.7358 0001772 105.4551 254.6777 13.18686313225391
ONEWEB-0402             
1 50482U 21132P   26197.30549987  .00000056  00000+0  10978-3 0  9996
2 50482  87.9197 329.6414 0001594 110.3561 249.7743 13.18688136225478
ONEWEB-0403             
1 50483U 21132Q   26196.87554444  .00000044  00000+0  79390-4 0  9993
2 50483  87.9196 329.7514 0001819  94.1283 266.0057 13.18686506225378
ONEWEB-0404             
1 50484U 21132R   26197.01909677  .00000496  00000+0  13636-2 0  9993
2 50484  87.8887  15.3259 0001825  80.8186 279.3149 13.11416939219477
ONEWEB-0405             
1 50485U 21132S   26196.88903102 -.00000068  00000+0 -20620-3 0  9994
2 50485  87.9203 329.7341 0002384  97.0208 263.1195 13.18684427225779
ONEWEB-0406             
1 50486U 21132T   26196.88059699  .00000039  00000+0  65701-4 0  9994
2 50486  87.9194 329.7501 0001740  81.4251 278.7078 13.18686708225403
ONEWEB-0407             
1 50487U 21132U   26196.87383970 -.00000017  00000+0 -76533-4 0  9999
2 50487  87.9199 329.7449 0001980 103.9624 256.1728 13.18687949225343
ONEWEB-0409             
1 50488U 21132V   26197.01740452  .00000458  00000+0  12550-2 0  9993
2 50488  87.8891  15.3157 0001923  82.5004 277.6342 13.11417435219366
ONEWEB-0412             
1 50489U 21132W   26197.31731078  .00000031  00000+0  46224-4 0  9995
2 50489  87.9195 329.6644 0001676 105.1944 254.9374 13.18686608225498
ONEWEB-0413             
1 50490U 21132X   26197.32236488  .00000052  00000+0  99863-4 0  9993
2 50490  87.9187 329.6598 0001834 107.6618 252.4715 13.18687731225434
ONEWEB-0414             
1 50491U 21132Y   26196.85193376  .00000035  00000+0  56271-4 0  9996
2 50491  87.9198 329.7380 0001714  99.1215 261.0111 13.18687074225405
ONEWEB-0417             
1 50492U 21132Z   26197.31561969  .00000075  00000+0  15854-3 0  9991
2 50492  87.9192 329.6630 0001855  92.7273 267.4072 13.18687228225447
ONEWEB-0418             
1 50493U 21132AA  26197.32560123  .00000040  00000+0  68454-4 0  9991
2 50493  87.9194 329.6623 0001879  90.2309 269.9038 13.18686213225500
ONEWEB-0419             
1 50494U 21132AB  26196.88937825  .00000023  00000+0  25603-4 0  9999
2 50494  87.9198 329.7498 0002088  92.8498 267.2873 13.18665742225362
ONEWEB-0420             
1 50495U 21132AC  26197.30886729 -.00000107  00000+0 -30408-3 0  9997
2 50495  87.9190 329.6665 0001996 103.3071 256.8284 13.18685313225414
ONEWEB-0421             
1 50496U 21132AD  26197.30214628  .00000057  00000+0  11170-3 0  9998
2 50496  87.9192 329.6661 0001536 102.3086 257.8218 13.18686592225450
ONEWEB-0424             
1 50497U 21132AE  26196.88397426 -.00000022  00000+0 -88014-4 0  9995
2 50497  87.9199 329.7490 0002208  93.3041 266.8343 13.18686458225423
ONEWEB-0426             
1 50498U 21132AF  26197.29792441  .00000046  00000+0  83258-4 0  9997
2 50498  87.9198 329.6576 0001333  82.9525 277.1758 13.18686471225426
ONEWEB-0427             
1 50499U 21132AG  26196.88228926  .00000041  00000+0  71070-4 0  9998
2 50499  87.9199 329.7295 0001817  91.6960 268.4381 13.18686231225399
ONEWEB-0429             
1 50500U 21132AH  26196.86878617  .00000063  00000+0  12717-3 0  9993
2 50500  87.9189 329.7546 0001929 101.8814 258.2534 13.18687105225361
ONEWEB-0430             
1 50501U 21132AJ  26196.85698066  .00000074  00000+0  15594-3 0  9999
2 50501  87.9191 329.7553 0002102 103.6646 256.4720 13.18688646225403
ONEWEB-0432             
1 50502U 21132AK  26197.29525946  .00000034  00000+0  52710-4 0  9993
2 50502  87.9197 329.6546 0002340  97.1062 263.0336 13.18686605225415
ONEWEB-0440             
1 50503U 21132AL  26196.87722174  .00000036  00000+0  59033-4 0  9996
2 50503  87.9198 329.7494 0001718 107.3509 252.7811 13.18686866225353
ONEWEB-0450             
1 50504U 21132AM  26196.87061853  .00000038  00000+0  63909-4 0  9996
2 50504  87.9189 329.7528 0001996 102.7287 257.4069 13.18686978225386
