OBJECT_NAME,OBJECT_ID,EPOCH,MEAN_MOTION,ECCENTRICITY,INCLINATION,RA_OF_ASC_NODE,ARG_OF_PERICENTER,MEAN_ANOMALY,EPHEMERIS_TYPE,CLASSIFICATION_TYPE,NORAD_CAT_ID,ELEMENT_SET_NO,REV_AT_EPOCH,BSTAR,MEAN_MOTION_DOT,MEAN_MOTION_DDOT
ONEWEB-0395,2021-132G,2026-07-16T00:10:23.823552,13.11419498,.00020132,87.8884,15.3274,84.7821,275.3537,0,U,50475,999,21949,.26405235E-3,.106E-5,0
ONEWEB-0396,2021-132H,2026-07-15T22:11:11.838048,13.18686884,.0001745,87.9198,329.7409,95.7869,264.3462,0,U,50476,999,22542,-.52661E-4,-.8E-7,0
ONEWEB-0397,2021-132J,2026-07-16T07:39:21.208608,13.18686833,.00016364,87.9197,329.6625,98.3831,261.7487,0,U,50477,999,22545,.10760633E-3,.55E-6,0
ONEWEB-0398,2021-132K,2026-07-15T23:24:00.495936,13.11415552,.00021563,87.8890,15.3266,88.9751,271.1624,0,U,50478,999,21938,-.88082154E-3,-.299E-5,0
ONEWEB-0399,2021-132L,2026-07-16T04:34:05.620512,13.11415197,.00015127,87.8892,15.2950,77.5671,282.5626,0,U,50479,999,21940,.79937663E-3,.296E-5,0
ONEWEB-0400,2021-132M,2026-07-15T22:01:28.466112,13.18684922,.0002051,87.9199,329.7321,97.0509,263.0857,0,U,50480,999,22539,-.31339E-4,.1E-7,0
ONEWEB-0401,2021-132N,2026-07-15T21:17:46.860288,13.18686313,.0001772,87.9201,329.7358,105.4551,254.6777,0,U,50481,999,22539,-.15601E-3,-.49E-6,0
ONEWEB-0402,2021-132P,2026-07-16T07:19:55.188768,13.18688136,.00015949,87.9197,329.6414,110.3561,249.7743,0,U,50482,999,22547,.10978137E-3,.56E-6,0
ONEWEB-0403,2021-132Q,2026-07-15T21:00:47.039616,13.18686506,.0001819,87.9196,329.7514,94.1283,266.0057,0,U,50483,999,22537,.7939E-4,.44E-6,0
ONEWEB-0404,2021-132R,2026-07-16T00:27:29.960928,13.11416939,.00018253,87.8887,15.3259,80.8186,279.3149,0,U,50484,999,21947,.13636039E-2,.496E-5,0
ONEWEB-0405,2021-132S,2026-07-15T21:20:12.280128,13.18684427,.0002384,87.9203,329.7341,97.0208,263.1195,0,U,50485,999,22577,-.2062E-3,-.68E-6,0
ONEWEB-0406,2021-132T,2026-07-15T21:08:03.579936,13.18686708,.000174,87.9194,329.7501,81.4251,278.7078,0,U,50486,999,22540,.65701E-4,.39E-6,0
ONEWEB-0407,2021-132U,2026-07-15T20:58:19.750080,13.18687949,.000198,87.9199,329.7449,103.9624,256.1728,0,U,50487,999,22534,-.76533E-4,-.17E-6,0
ONEWEB-0409,2021-132V,2026-07-16T00:25:03.750528,13.11417435,.0001923,87.8891,15.3157,82.5004,277.6342,0,U,50488,999,21936,.12550202E-2,.458E-5,0
ONEWEB-0412,2021-132W,2026-07-16T07:36:55.651392,13.18686608,.00016768,87.9195,329.6644,105.1944,254.9374,0,U,50489,999,22549,.46223828E-4,.31E-6,0
ONEWEB-0413,2021-132X,2026-07-16T07:44:12.325632,13.18687731,.00018342,87.9187,329.6598,107.6618,252.4715,0,U,50490,999,22543,.99863083E-4,.52E-6,0
ONEWEB-0414,2021-132Y,2026-07-15T20:26:47.076864,13.18687074,.0001714,87.9198,329.7380,99.1215,261.0111,0,U,50491,999,22540,.56271E-4,.35E-6,0
ONEWEB-0417,2021-132Z,2026-07-16T07:34:29.541216,13.18687228,.00018555,87.9192,329.6630,92.7273,267.4072,0,U,50492,999,22544,.15853805E-3,.75E-6,0
ONEWEB-0418,2021-132AA,2026-07-16T07:48:51.946272,13.18686213,.00018798,87.9194,329.6623,90.2309,269.9038,0,U,50493,999,22550,.6845402E-4,.4E-6,0
ONEWEB-0419,2021-132AB,2026-07-15T21:20:42.280800,13.18665742,.0002088,87.9198,329.7498,92.8498,267.2873,0,U,50494,999,22536,.25603E-4,.23E-6,0
ONEWEB-0420,2021-132AC,2026-07-16T07:24:46.133856,13.18685313,.00019969,87.9190,329.6665,103.3071,256.8284,0,U,50495,999,22541,-.30408419E-3,-.107E-5,0
ONEWEB-0421,2021-132AD,2026-07-16T07:15:05.438592,13.18686592,.00015361,87.9192,329.6661,102.3086,257.8218,0,U,50496,999,22545,.11169886E-3,.57E-6,0
ONEWEB-0424,2021-132AE,2026-07-15T21:12:55.376064,13.18686458,.0002208,87.9199,329.7490,93.3041,266.8343,0,U,50497,999,22542,-.88014E-4,-.22E-6,0
ONEWEB-0426,2021-132AF,2026-07-16T07:09:00.669024,13.18686471,.00013332,87.9198,329.6576,82.9525,277.1758,0,U,50498,999,22542,.83258281E-4,.46E-6,0
ONEWEB-0427,2021-132AG,2026-07-15T21:10:29.792064,13.18686231,.0001817,87.9199,329.7295,91.6960,268.4381,0,U,50499,999,22539,.7107E-4,.41E-6,0
ONEWEB-0429,2021-132AH,2026-07-15T20:51:03.125088,13.18687105,.0001929,87.9189,329.7546,101.8814,258.2534,0,U,50500,999,22536,.12717E-3,.63E-6,0
ONEWEB-0430,2021-132AJ,2026-07-15T20:34:03.129024,13.18688646,.0002102,87.9191,329.7553,103.6646,256.4720,0,U,50501,999,22540,.15594E-3,.74E-6,0
ONEWEB-0432,2021-132AK,2026-07-16T07:05:10.417344,13.18686605,.00023408,87.9197,329.6546,97.1062,263.0336,0,U,50502,999,22541,.52710393E-4,.34E-6,0
ONEWEB-0440,2021-132AL,2026-07-15T21:03:11.958336,13.18686866,.0001718,87.9198,329.7494,107.3509,252.7811,0,U,50503,999,22535,.59033E-4,.36E-6,0
ONEWEB-0450,2021-132AM,2026-07-15T20:53:41.440992,13.18686978,.0001996,87.9189,329.7528,102.7287,257.4069,0,U,50504,999,22538,.63909E-4,.38E-6,0
